#dP2019  9 17  0  0  0.00000000      96 __u+U ITR00 FIT  IAC
## 2071 172800.00000000   900.00000000 58743 0.0000000000000
+  117   C01C02C03C04C05C06C07C08C09C10C11C12C13C14C16C19C20
+        C21C22C23C24C25C26C27C28C29C30C32C33C34C35C36C37E01
+        E02E03E04E05E07E08E09E11E12E13E14E15E18E19E21E24E25
+        E26E27E30E31E33E36G01G02G03G04G05G06G07G08G09G10G11
+        G12G13G14G15G16G17G18G19G20G21G22G23G24G25G26G27G28
+        G29G30G31G32J01J02J03J07R01R02R03R05R06R07R08R09R11
+        R12R13R14R15R16R17R18R19R20R21R22R23R24R26R27  0  0
++        13 12 13  0 12  8  9  9  8  8  8  8  8  8  9  8  8
++         8  8  8  8  8  9  8  8  8  8  8  8  8 10  9  9  5
++         5  5  5  5  5  5  5  5  5  5  5  5  5  5  5  5  5
++         5  4  5  5  6  5  3  3  3  4  3  3  3  4  3  3  3
++         3  3  3  3  3  3  3  3  3  3  3  3  3  3  3  4  3
++         3  3  3  3  9  9  9 13  6  5  5  5 11  5  5  5  5
++         5  6  6  6  6  6  5  6  6  5  5  5  7  8  8  0  0
%c M  cc GPS ccc cccc cccc cccc cccc ccccc ccccc ccccc ccccc
%c cc cc ccc ccc cccc cccc cccc cccc ccccc ccccc ccccc ccccc
%f  0.0000000  0.000000000  0.00000000000  0.000000000000000
%f  0.0000000  0.000000000  0.00000000000  0.000000000000000
%i    0    0    0    0      0      0      0      0         0
%i    0    0    0    0      0      0      0      0         0
/* INFORMATION & ANALYSIS CENTER (IAC)            RAPID DATA
/* S/V CLOCKS ARE ALIGNED TO GNSS TIME                      
/* G:C1WC2W R:C1PC2P E:C1XC5X E:C2IC6I J:C1CC2S             
/* PCV:IGS14_2062 OL/AL:FES2004  NONE     YN ORB:CoN CLK:CoN
*  2019 09 17  1 30  0.00000000
PC01 -32312.069951  27053.285303    442.352153   -100.995165
PC02   4322.734007  41960.715402    297.751512    866.124858
PC03 -14836.697984  39453.583699    715.259324     66.691026
PC04      0.000000      0.000000      0.000000 999999.999999
PC05  21813.420356  36086.187030    193.366435     -7.724085
PC06 -22630.979677  24202.367925 -25939.223451 999999.999999
PC07 -15448.863022  38110.303511  -7818.492208   -135.185602
PC08  -6618.253920  23332.617669  34618.111208     -5.075297
PC09  -7011.053632  25144.753855 -32951.306792    -27.529020
PC10  -5949.049505  41281.110339   4522.104345   -183.287736
PC11  26642.765070   7093.794650   4598.506917    108.715385
PC12   3062.095809  15703.773201  22937.224165   -246.613289
PC13   6031.428394  31699.162425  27335.636415   -892.655329
PC14  10344.338095  12551.095227 -22619.797930    506.813243
PC16 -18063.500449  24968.828203 -28832.269913   -878.994209
PC19 -20642.537364   7106.606183  17392.863347    199.844853
PC20 -11595.137731 -11052.496260  22864.386247    -71.848498
PC21  -4620.859151  23118.377262 -14900.624649    307.771174
PC22 -17836.928636  21374.533650   1665.255729   -110.861047
PC23   9080.122328 -16592.548504  20534.933386   -947.246179
PC24  15657.689158  20991.481413   9667.920052   -900.820652
PC25  17571.170243   2401.965471  21551.398217   -350.915800
PC26   5698.632209  26370.639842  -7182.780200    389.699505
PC27  -2648.572559 -16227.805434 -22564.336236    190.564460
PC28  17661.383007 -10497.845503 -18890.219367    185.102081
PC29 -27578.680077   -266.771481   4231.645824 999999.999999
PC30 -21650.301739 -11725.523059 -13148.771238    193.643741
PC32   4435.193929 -23172.964944  14920.171880   -929.357150
PC33  20623.586676  -7173.491873 -17385.620144   -391.882318
PC34  21798.966754  11693.165744  12895.944993    -82.461528
PC35 -17388.092730  11089.959630  18811.549527   -347.016166
PC36 -17524.005392  -3002.773642 -21478.496263 999999.999999
PC37  -4678.813162 -26415.186157   7709.597235   -489.441801
PE01 -14106.028032  15714.217095 -20730.649464   -691.530321
PE02  14090.614247 -15784.333204  20705.980768     79.638476
PE03  25497.900785 -14995.770229   1311.471967   -211.668480
PE04 -11384.078424  20666.561921 -17868.244007   -366.938898
PE05  24787.823820   -470.150169 -16174.349094   -447.977264
PE07  -9583.405281 -14256.008783  24111.437380   -267.240534
PE08  11147.076258 -20662.596901  18038.725154   6290.913363
PE09   9698.354668  14005.911270 -24202.891094   6313.990181
PE11  18714.607582  19896.113946  11386.524674   5588.580841
PE12   -810.623323  17771.197112  23654.016364   6194.692800
PE13 -18715.212486 -19811.826636 -11544.561051    392.972384
PE14 -22602.719928 -11722.578672 -17443.477669   -722.666240
PE15    319.041354 -17851.838563 -23605.493423    895.134529
PE18  26130.247961    528.714460   3861.141766   -816.972849
PE19 -26156.800010  13841.125286    661.915406     -3.922504
PE21 -15836.141443  -6660.238127 -24099.987861   -555.264339
PE24   8233.222795  25092.986126  13376.312484   5867.292554
PE25  15833.404590   6728.588449  24098.258521   1676.210178
PE26 -26764.530566 -10220.719492   7413.716575   4098.808036
PE27  -8251.462186 -25147.776173 -13249.202584    385.792004
PE30   4265.865726 -28817.200325   5244.928914   4540.889154
PE31  -4129.461144  28817.206176  -5310.019912   -468.520574
PE33 -19202.078853   5430.231984  21862.276179   -470.199619
PE36  26824.339498  10159.083119  -7319.260732    661.168105
PG01 -20569.218317 -11577.059188  12286.872742   -131.275459
PG02  13611.487763  21782.690338   7629.654568   -306.627505
PG03 -15526.359950   -865.718403  21466.999470    -11.777379
PG04  -3916.673049 -14886.657210 -21934.871702     64.119417
PG05   5641.126866  20223.598259 -16284.541963     -1.483465
PG06    579.535430  19482.918068  18069.456784    -59.879702
PG07 -16153.227079   3394.969120 -20623.359248   -107.907760
PG08 -21007.798896  -6356.123453 -15069.800227     -6.718249
PG09 -24991.510483   7992.499555  -4190.397198    -33.116514
PG10  11345.457599 -23523.366799  -4092.286515    -56.713531
PG11 -24822.803755  -8179.008303   3209.244030   -504.953156
PG12  13371.139032   6023.836576  21930.025712    203.272023
PG13  12028.443257  13028.720505 -19908.144337    -43.937235
PG14   3144.436400 -15515.732156  21631.907643    -60.945517
PG15  22217.462057   4793.025554 -14330.537419   -286.442037
PG16  -2097.918900 -21038.970081 -15985.466058    -74.792981
PG17 -12963.364471  14178.021347  18716.362296    126.943323
PG18 -19884.315283 -17159.606685   3797.595143     86.264777
PG19  -6537.235820  14546.460555  20946.220657   -266.256398
PG20  14236.310811 -17870.219045 -13497.815834    526.895535
PG21  12289.941495  -8905.016528 -21001.486769   -117.612145
PG22 -13814.501206  -9108.457899  21009.885715   -755.551806
PG23 -25770.660000   -313.160044   7560.137473   -166.478644
PG24  21535.311347  12469.999053   9592.469159     -2.253615
PG25  16625.392288  -9589.742827  18035.924609    -12.450987
PG26   3387.119288 -25428.631388  -6511.354633     40.660661
PG27  -9183.165934 -12964.045364 -21448.741625    -58.002765
PG28 -12743.754464  23124.427699  -2740.065554    761.981360
PG29  26132.829703  -4382.961023  -2044.193406     95.867503
PG30  -8076.189922  14322.006187 -20793.627058    -42.264274
PG31  -1458.135368 -20447.434401  16628.881378      9.879161
PG32  12482.602795 -15188.258381  17862.259271     59.509197
PJ01 -32836.935427  26334.742954   7637.578663   -347.041680
PJ02 -19244.399216  26381.469520 -22211.189783     -4.126844
PJ03 -30634.186241  24780.455607  20006.985054     -2.077213
PJ07 -25373.948044  33669.078358    -38.026106     -0.089784
PR01  19330.419826 -16546.337020  -1909.302621     49.849249
PR02   7236.036470 -17306.527526  17293.076376    388.440865
PR03  -8349.721901  -7251.839949  23024.348385      1.630227
PR05 -18838.700624  17201.063051   -681.053057     35.841882
PR06  -6069.622138  17296.555164 -17763.547379    162.044261
PR07   8699.140747   6881.624512 -22936.343191    -26.732626
PR08  18936.307826  -6908.786402 -15575.617363     15.631445
PR09   4150.913846  25045.542335  -2037.189066     91.002266
PR11  11623.721964   2247.961566  22610.186891    -79.615496
PR12   6289.071646 -15157.585243  19557.164112     62.269964
PR13  -3180.787079 -24888.965810   4614.130409    -28.493886
PR14 -10160.814980 -19758.489398 -12530.319276     43.074218
PR15 -11546.864116  -3340.419608 -22470.773459    104.005741
PR16  -6019.152808  15621.894791 -19303.138340      4.268518
PR17 -19256.300863 -12045.912698 -11557.788891    260.832638
PR18 -24318.260035  -5683.902833   5323.204066      7.726847
PR19 -16408.520866   3218.384651  19254.040807    -54.129347
PR20   2685.545958  11693.158635  22507.391854   -390.664239
PR21  19786.062698  11882.123541  10897.591827    -72.882116
PR22  23723.566730   4249.557620  -8179.887927   -175.784717
PR23  11311.462775  -6554.904201 -21916.359111    254.357515
PR24  -5065.200177 -12137.813580 -21886.049970   -184.812572
PR26   -586.865303  10788.533069  23116.584211     -4.619060
PR27 -11621.199432  -8585.672097 -20978.090442    122.476273
EOF
